OBJECT_NAME,OBJECT_ID,EPOCH,MEAN_MOTION,ECCENTRICITY,INCLINATION,RA_OF_ASC_NODE,ARG_OF_PERICENTER,MEAN_ANOMALY,EPHEMERIS_TYPE,CLASSIFICATION_TYPE,NORAD_CAT_ID,ELEMENT_SET_NO,REV_AT_EPOCH,BSTAR,MEAN_MOTION_DOT,MEAN_MOTION_DDOT
INTELSAT 21 (IS-21),2012-045A,2026-06-17T21:14:54.316032,1.00269964,.00013892,0.0171,2.7764,103.9364,60.1373,0,U,38749,999,5053,0,-.29E-5,0
INTELSAT 23 (IS-23),2012-057A,2026-06-17T21:16:16.683744,1.00267723,.00001627,0.0131,313.6421,58.3730,160.1836,0,U,38867,999,4996,0,-.29E-5,0
FM-6,2013-058A,2026-06-17T11:15:38.600928,1.00264299,.00022215,0.0312,44.0420,130.9080,143.3512,0,U,39360,999,4607,0,0,0
INTELSAT 30 (IS-30),2014-062A,2026-06-17T07:46:38.554176,1.00270102,.0001219,0.0268,50.1227,328.9119,268.1517,0,U,40271,999,679,0,-.155E-5,0
DIRECTV 14,2014-078B,2026-06-17T23:29:27.584736,1.00271608,.00004358,0.0098,23.1294,292.0243,204.1979,0,U,40333,999,4205,0,-.131E-5,0
DIRECTV 15,2015-026A,2026-06-17T21:02:03.049152,1.00267772,.00004027,0.0114,46.9988,273.9598,157.7890,0,U,40663,999,4047,0,-.107E-5,0
SKY MEXICO-1,2015-026B,2026-06-17T21:08:54.891168,1.00270017,.00020766,0.0159,23.9234,83.8067,36.8187,0,U,40664,999,4046,0,-.24E-5,0
INTELSAT 34 (IS-34),2015-039A,2026-06-17T21:15:31.755744,1.00269570,.0000465,0.0101,358.2034,330.1165,201.2037,0,U,40874,999,3964,0,-.291E-5,0
INTELSAT 31 (IS-31),2016-035A,2026-06-17T21:04:17.834016,1.00269673,.00010696,0.0154,290.3289,325.5654,231.2457,0,U,41581,999,3669,0,-.156E-5,0
INTELSAT 36 (IS-36),2016-053A,2026-06-17T21:50:58.706880,1.00271086,.00021491,0.0131,14.1096,319.3699,328.9154,0,U,41747,999,3596,0,-.3E-6,0
INTELSAT 32E (IS-32E),2017-007B,2026-06-17T19:36:23.700672,1.00268882,.00007159,0.0178,357.9916,314.7958,204.1882,0,U,41945,999,3423,0,-.275E-5,0
INTELSAT 35E (IS-35E),2017-041A,2026-06-17T16:13:37.428096,1.00266508,.00016834,0.0204,1.0645,79.9055,33.8532,0,U,42818,999,3282,0,0,0
INTELSAT 37E (IS-37E),2017-059A,2026-06-17T21:26:15.559296,1.00269834,.00024604,0.0211,10.8043,100.9069,98.0162,0,U,42950,999,3207,0,0,0
AZERSPACE 2 (IS-38),2018-074A,2026-06-17T21:44:14.353152,1.00271144,.00012784,0.0174,10.6964,77.9689,188.6477,0,U,43632,999,2845,0,.131E-5,0
HORIZONS-3E,2018-074B,2026-06-17T17:11:37.263264,1.00270832,.00008695,0.0021,233.5565,40.2741,59.0407,0,U,43633,999,2834,0,-.36E-6,0
AT&T T-16,2019-034A,2026-06-17T14:11:57.822144,1.00268538,.00007716,0.0252,66.2499,211.2042,100.5032,0,U,44333,999,2563,0,-.12E-5,0
INTELSAT 39 (IS-39),2019-049B,2026-06-17T21:49:06.386016,1.00270797,.0000908,0.0182,352.6794,327.5619,335.1358,0,U,44476,999,2513,0,.28E-6,0
GALAXY 30 (G-30),2020-056C,2026-06-17T17:30:27.956736,1.00271477,.0002128,0.0146,50.6946,36.1125,316.7814,0,U,46114,999,2129,0,.32E-6,0
GALAXY 33 (G-33),2022-128A,2026-06-17T17:28:13.171872,1.00272294,.00016388,0.0135,36.9082,51.3449,306.7868,0,U,54026,999,1374,0,.74E-6,0
GALAXY 34 (G-34),2022-128B,2026-06-17T17:29:13.077312,1.00277403,.00016095,0.0148,14.9716,90.3282,293.9894,0,U,54027,999,1391,0,.53E-6,0
GALAXY 31 (G-31),2022-153A,2026-06-17T15:48:54.797184,1.00271249,.00010468,0.0132,53.6046,23.1287,305.3899,0,U,54243,999,713,0,.8E-7,0
GALAXY 32 (G-32),2022-153B,2026-06-17T21:05:25.226016,1.00271682,.00020733,0.0094,18.6564,14.9107,97.9137,0,U,54244,999,1315,0,-.18E-5,0
GALAXY 35 (G-35),2022-170A,2026-06-17T21:04:55.273728,1.00272004,.00017613,0.0144,34.2307,49.0374,45.9727,0,U,54741,999,1290,0,-.168E-5,0
GALAXY 36 (G-36),2022-170B,2026-06-17T21:06:02.665728,1.00270129,.00025533,0.0109,303.6397,141.1237,48.8681,0,U,54742,999,1278,0,-.19E-5,0
GALAXY 37 (G-37),2023-112A,2026-06-17T15:47:09.964608,1.00272276,.00017566,0.0168,330.4587,110.7242,294.5174,0,U,57493,999,1054,0,.43E-6,0
